[{"OBJECT_NAME":"PROBA-2","OBJECT_ID":"2009-059B","EPOCH":"2026-03-09T22:14:08.403360","MEAN_MOTION":14.54791624,"ECCENTRICITY":0.00123546,"INCLINATION":98.2432,"RA_OF_ASC_NODE":253.6562,"ARG_OF_PERICENTER":223.465,"MEAN_ANOMALY":136.5574,"EPHEMERIS_TYPE":0,"CLASSIFICATION_TYPE":"U","NORAD_CAT_ID":36037,"ELEMENT_SET_NO":999,"REV_AT_EPOCH":86709,"BSTAR":9.6228268e-5,"MEAN_MOTION_DOT":3.67e-6,"MEAN_MOTION_DDOT":0},{"OBJECT_NAME":"NOAA 16 DEB","OBJECT_ID":"2000-055CT","EPOCH":"2026-03-08T06:30:23.611104","MEAN_MOTION":14.4987895,"ECCENTRICITY":0.00128969,"INCLINATION":98.8306,"RA_OF_ASC_NODE":178.5312,"ARG_OF_PERICENTER":87.254,"MEAN_ANOMALY":273.0128,"EPHEMERIS_TYPE":0,"CLASSIFICATION_TYPE":"U","NORAD_CAT_ID":41160,"ELEMENT_SET_NO":999,"REV_AT_EPOCH":53079,"BSTAR":0.0071226955,"MEAN_MOTION_DOT":0.00027606,"MEAN_MOTION_DDOT":0}]
